OBJECT_NAME,OBJECT_ID,EPOCH,MEAN_MOTION,ECCENTRICITY,INCLINATION,RA_OF_ASC_NODE,ARG_OF_PERICENTER,MEAN_ANOMALY,EPHEMERIS_TYPE,CLASSIFICATION_TYPE,NORAD_CAT_ID,ELEMENT_SET_NO,REV_AT_EPOCH,BSTAR,MEAN_MOTION_DOT,MEAN_MOTION_DDOT
FM-6,2013-058A,2026-06-30T12:18:42.843168,1.00271303,.00018206,0.0208,53.0281,128.0985,165.8183,0,U,39360,999,4620,0,-.5E-7,0
RADUGA-1M 3,2013-062A,2026-06-30T20:10:38.689248,1.00273035,.00019717,5.9911,72.1810,284.5484,259.8154,0,U,39375,999,4624,0,.159E-5,0
INMARSAT 5-F1,2013-073A,2026-06-29T21:20:27.294720,1.00281549,.00008937,0.0187,21.1862,21.0412,258.4874,0,U,39476,999,4570,0,.37E-6,0
TKSAT-1 (TUPAC KATARI),2013-075A,2026-06-30T18:47:34.427904,1.00271465,.0002824,0.0415,146.6504,306.0167,20.8855,0,U,39481,999,4574,0,-.184E-5,0
EXPRESS-AM5,2013-077A,2026-06-30T14:44:31.293312,1.00272075,.00004235,0.0162,324.4037,92.6173,222.8274,0,U,39487,999,4649,0,-.269E-5,0
GSAT-14,2014-001A,2026-06-30T00:44:24.126720,1.00270862,.00010148,0.0433,253.6682,308.4503,161.0782,0,U,39498,999,4550,0,-.66E-6,0
THAICOM 6,2014-002A,2026-06-30T19:34:59.903904,1.00271179,.00047651,0.0575,111.4405,4.0588,175.6496,0,U,39500,999,4559,0,-.111E-5,0
TDRS 12,2014-004A,2026-06-30T19:00:51.767712,1.00278546,.00034126,3.9899,19.3077,202.4856,301.2277,0,U,39504,999,4441,0,-.261E-5,0
TURKSAT 4A,2014-007A,2026-06-29T21:09:48.916224,1.00273946,.00004899,0.0473,300.5155,340.7411,356.1552,0,U,39522,999,4509,0,.157E-5,0
EXPRESS-AT1,2014-010A,2026-06-30T20:25:38.736192,1.00307585,.00045103,0.2923,85.5448,44.4932,159.2816,0,U,39612,999,4495,0,.19E-6,0
EXPRESS-AT2,2014-010B,2026-06-30T17:45:52.989696,1.00271373,.00005792,0.0165,329.4913,92.0589,179.7168,0,U,39613,999,4463,0,.89E-6,0
AMAZONAS 4A,2014-011A,2026-06-29T13:46:18.863616,1.00270454,.00044618,0.0648,160.6586,317.7297,291.8389,0,U,39616,999,4483,0,-.241E-5,0
IRNSS-1B,2014-017A,2026-06-30T17:45:30.525696,1.00271175,.00228857,28.9013,240.1691,193.6011,166.4720,0,U,39635,999,4493,0,.148E-5,0
KAZSAT-3,2014-023B,2026-06-29T23:43:38.631648,1.00271295,.0000045,0.0117,7.8265,48.9363,275.7059,0,U,39728,999,4258,0,.72E-6,0
ASIASAT 8 (AMOS-7),2014-046A,2026-06-29T20:34:41.484576,1.00276037,.00018178,0.0426,272.5639,172.6918,246.6052,0,U,40107,999,10227,0,-.322E-5,0
OPTUS 10,2014-054A,2026-06-30T16:31:41.864736,1.00270771,.00021462,0.0918,325.1081,134.5899,222.9887,0,U,40146,999,4316,0,-.137E-5,0
MEASAT-3B,2014-054B,2026-06-29T20:33:21.427200,1.00276975,.00021141,0.0235,358.3647,78.6407,240.7636,0,U,40147,999,4303,0,-.232E-5,0
HIMAWARI-8,2014-060A,2026-06-30T19:52:35.717088,1.00272768,.00011136,0.0179,10.8288,89.9992,256.8861,0,U,40267,999,4289,0,-.265E-5,0
IRNSS-1C,2014-061A,2026-06-28T19:41:49.058880,1.00274876,.00221059,6.5464,88.7100,4.4529,202.1283,0,U,40269,999,4280,0,-.156E-5,0
INTELSAT 30 (IS-30),2014-062A,2026-06-29T20:11:52.505088,1.00272441,.00016035,0.0193,43.7532,346.9405,95.1444,0,U,40271,999,692,0,-.14E-5,0
ARSAT 1,2014-062B,2026-06-30T18:52:03.996768,1.00270943,.00021098,0.0120,354.5858,100.8368,34.6402,0,U,40272,999,4276,0,-.249E-5,0
GSAT-16,2014-078A,2026-06-29T21:28:29.234784,1.00272775,.00080092,0.0529,265.6097,180.8285,208.7438,0,U,40332,999,4223,0,.96E-6,0
DIRECTV 14,2014-078B,2026-06-30T14:20:21.889248,1.00270222,.00004056,0.0112,26.7471,352.9297,14.8397,0,U,40333,999,4217,0,-.115E-5,0
