FM-6                    
1 39360U 13058A   26181.51299587 -.00000005  00000+0  00000+0 0  9996
2 39360   0.0208  53.0281 0001820 128.0985 165.8183  1.00271303 46207
RADUGA-1M 3             
1 39375U 13062A   26181.84072557  .00000159  00000+0  00000+0 0  9998
2 39375   5.9911  72.1810 0001972 284.5484 259.8154  1.00273035 46248
INMARSAT 5-F1           
1 39476U 13073A   26180.88920480  .00000037  00000+0  00000+0 0  9997
2 39476   0.0187  21.1862 0000893  21.0412 258.4874  1.00281549 45701
TKSAT-1 (TUPAC KATARI)  
1 39481U 13075A   26181.78303735 -.00000184  00000+0  00000+0 0  9997
2 39481   0.0415 146.6504 0002824 306.0167  20.8855  1.00271465 45746
EXPRESS-AM5             
1 39487U 13077A   26181.61425108 -.00000269  00000+0  00000+0 0  9990
2 39487   0.0162 324.4037 0000424  92.6173 222.8274  1.00272075 46497
GSAT-14                 
1 39498U 14001A   26181.03083480 -.00000066  00000+0  00000+0 0  9994
2 39498   0.0433 253.6682 0001014 308.4503 161.0782  1.00270862 45501
THAICOM 6               
1 39500U 14002A   26181.81597110 -.00000111  00000+0  00000+0 0  9996
2 39500   0.0575 111.4405 0004765   4.0588 175.6496  1.00271179 45598
TDRS 12                 
1 39504U 14004A   26181.79226582 -.00000261  00000+0  00000+0 0  9997
2 39504   3.9899  19.3077 0003413 202.4856 301.2277  1.00278546 44414
TURKSAT 4A              
1 39522U 14007A   26180.88181616  .00000157  00000+0  00000+0 0  9990
2 39522   0.0473 300.5155 0000489 340.7411 356.1552  1.00273946 45094
EXPRESS-AT1             
1 39612U 14010A   26181.85114278  .00000019  00000+0  00000+0 0  9999
2 39612   0.2923  85.5448 0004510  44.4932 159.2816  1.00307585 44952
EXPRESS-AT2             
1 39613U 14010B   26181.74019663  .00000089  00000+0  00000+0 0  9997
2 39613   0.0165 329.4913 0000579  92.0589 179.7168  1.00271373 44631
AMAZONAS 4A             
1 39616U 14011A   26180.57382944 -.00000241  00000+0  00000+0 0  9997
2 39616   0.0648 160.6586 0004461 317.7297 291.8389  1.00270454 44830
IRNSS-1B                
1 39635U 14017A   26181.73993663  .00000148  00000+0  00000+0 0  9994
2 39635  28.9013 240.1691 0022886 193.6011 166.4720  1.00271175 44931
KAZSAT-3                
1 39728U 14023B   26180.98864157  .00000072  00000+0  00000+0 0  9991
2 39728   0.0117   7.8265 0000045  48.9363 275.7059  1.00271295 42581
ASIASAT 8 (AMOS-7)      
1 40107U 14046A   26180.85742459 -.00000322  00000+0  00000+0 0  9994
2 40107   0.0426 272.5639 0001817 172.6918 246.6052  1.00276037102274
OPTUS 10                
1 40146U 14054A   26181.68867898 -.00000137  00000+0  00000+0 0  9997
2 40146   0.0918 325.1081 0002146 134.5899 222.9887  1.00270771 43164
MEASAT-3B               
1 40147U 14054B   26180.85649800 -.00000232  00000+0  00000+0 0  9993
2 40147   0.0235 358.3647 0002114  78.6407 240.7636  1.00276975 43039
HIMAWARI-8              
1 40267U 14060A   26181.82819117 -.00000265  00000+0  00000+0 0  9997
2 40267   0.0179  10.8288 0001114  89.9992 256.8861  1.00272768 42890
IRNSS-1C                
1 40269U 14061A   26179.82070670 -.00000156  00000+0  00000+0 0  9999
2 40269   6.5464  88.7100 0022105   4.4529 202.1283  1.00274876 42803
INTELSAT 30 (IS-30)     
1 40271U 14062A   26180.84157992 -.00000140  00000+0  00000+0 0  9993
2 40271   0.0193  43.7532 0001603 346.9405  95.1444  1.00272441  6929
ARSAT 1                 
1 40272U 14062B   26181.78615736 -.00000249  00000+0  00000+0 0  9993
2 40272   0.0120 354.5858 0002110 100.8368  34.6402  1.00270943 42762
GSAT-16                 
1 40332U 14078A   26180.89478281  .00000096  00000+0  00000+0 0  9999
2 40332   0.0529 265.6097 0008009 180.8285 208.7438  1.00272775 42238
DIRECTV 14              
1 40333U 14078B   26181.59747557 -.00000115  00000+0  00000+0 0  9996
2 40333   0.0112  26.7471 0000406 352.9297  14.8397  1.00270222 42175
